EUTELSAT 7A             
1 28187U 04008A   25324.49003170  .00000123  00000+0  00000+0 0  9992
2 28187   5.2996  74.5022 0000780 149.9907 232.4836  1.00270214 79262
EUTELSAT 174A           
1 28924U 05052A   25324.62346527  .00000030  00000+0  00000+0 0  9999
2 28924   3.6898  79.1112 0006084 159.0205 220.2641  1.00269389 50248
EUTELSAT HOTBIRD 13B    
1 29270U 06032A   25324.66688551  .00000177  00000+0  00000+0 0  9995
2 29270   1.1210  84.5560 0003307 151.9810  96.5748  1.00273557 45214
EUTELSAT HOTBIRD 13C    
1 33459U 08065A   25324.65431877 -.00000216  00000+0  00000+0 0  9998
2 33459   2.4122  81.6582 0000886 119.0162  64.9409  1.00053976 45258
EUTELSAT 36B            
1 36101U 09065A   25324.24226910  .00000133  00000+0  00000+0 0  9998
2 36101   0.0419 347.5336 0006123 254.3133 315.4295  1.00275564 58610
EUTELSAT KA-SAT 9A      
1 37258U 10069A   25324.66211882  .00000084  00000+0  00000+0 0  9991
2 37258   0.0578 320.4717 0002660 223.7008 123.1660  1.00271011 41914
EUTELSAT 7 WEST A       
1 37816U 11051A   25324.65882549 -.00000038  00000+0  00000+0 0  9996
2 37816   0.0736  24.4199 0005974 194.5879  70.8053  1.00272728 51783
EUTELSAT 16A            
1 37836U 11057A   25324.52079858  .00000126  00000+0  00000+0 0  9998
2 37836   0.0609 352.1807 0006074 256.4735  14.6668  1.00273665  5230
